IRIDIUM 150             
1 43257U 18030J   23343.48277523  .00000277  00000+0  91848-4 0  9995
2 43257  86.3948 315.2581 0002619  85.2832 274.8663 14.34217733298192
IRIDIUM 143             
1 43258U 18030K   23343.46373067  .00000285  00000+0  94659-4 0  9996
2 43258  86.3952 315.3223 0002329  82.0390 278.1070 14.34213766298128
IRIDIUM 161             
1 43478U 18047C   23343.80214886  .00000374  00000+0  10521-3 0  9993
2 43478  86.4484 113.1605 0002089  95.2434 264.9006 14.43259044292382
IRIDIUM 152             
1 43479U 18047D   23343.78529514  .00000282  00000+0  93679-4 0  9992
2 43479  86.3960 113.0274 0001918  86.8625 273.2790 14.34214072290574
IRIDIUM 147             
1 43480U 18047E   23343.44280687  .00000247  00000+0  81123-4 0  9994
2 43480  86.3962 113.1598 0002023 101.1670 258.9753 14.34215468290510
IRIDIUM 110             
1 43481U 18047F   23343.44911796  .00000133  00000+0  40304-4 0  9997
2 43481  86.3960 113.2240 0002797 112.4288 247.7205 14.34218748290503
IRIDIUM 162             
1 43482U 18047G   23343.44920251  .00000402  00000+0  11364-3 0  9996
2 43482  86.4482 113.2107 0002101  94.2878 265.8563 14.43257048292323
IRIDIUM 160             
1 43569U 18061A   23343.32521400  .00000271  00000+0  89822-4 0  9997
2 43569  86.3971  81.6328 0001657  97.0039 263.1346 14.34219526281382
